IRIDIUM 136             
1 42962U 17061H   24090.21780677  .00000449  00000+0  15323-3 0  9994
2 42962  86.4032   3.3210 0002208  92.9701 267.1748 14.34215060338888
